
# Worst residual: 95.26 km
# MJD 59467.000000 (2021 Sep 10  0:00)
A10ACM6 = A10Aw06 = A10AKvJ = A10AXl5
1 89950U 00000ABX 21253.49919926  .00000000  00000-0  00000-0 0 13998
2 89950 037.9264 002.7131 7002291 174.7359 284.9801 01.02196981    04

# Worst residual: 93.55 km
# MJD 59468.000000 (2021 Sep 11  0:00)
A10ACM6 = A10Aw06 = A10AKvJ = A10AXl5
1 89950U 00000ABX 21254.49919926  .00000000  00000-0  00000-0 0 13999
2 89950 037.9324 002.6637 7009886 175.1975 292.2164 01.02230602    00

# Worst residual: 93.27 km
# MJD 59469.000000 (2021 Sep 12  0:00)
A10ACM6 = A10Aw06 = A10AKvJ = A10AXl5
1 89950U 00000ABX 21255.49919926  .00000000  00000-0  00000-0 0 13990
2 89950 037.9588 002.6097 7015567 175.6547 299.5301 01.02254162    05

# Worst residual: 90.16 km
# MJD 59470.000000 (2021 Sep 13  0:00)
A10ACM6 = A10Aw06 = A10AKvJ = A10AXl5
1 89950U 00000ABX 21256.49919926  .00000000  00000-0  00000-0 0 13991
2 89950 037.9629 002.5634 7021749 176.1045 306.8932 01.02283162    09

# Worst residual: 95.90 km
# MJD 59471.000000 (2021 Sep 14  0:00)
A10ACM6 = A10Aw06 = A10AKvJ = A10AXl5
1 89950U 00000ABX 21257.49919926  .00000000  00000-0  00000-0 0 13992
2 89950 037.9946 002.5119 7026874 176.5666 314.2969 01.02319793    09

# Worst residual: 101.93 km
# MJD 59472.000000 (2021 Sep 15  0:00)
A10ACM6 = A10Aw06 = A10AKvJ = A10AXl5
1 89950U 00000ABX 21258.49919926  .00000000  00000-0  00000-0 0 13993
2 89950 037.9963 002.4708 7031217 177.0051 321.7659 01.02352208    09

# Worst residual: 102.99 km
# MJD 59473.000000 (2021 Sep 16  0:00)
A10ACM6 = A10Aw06 = A10AKvJ = A10AXl5
1 89950U 00000ABX 21259.49919926  .00000000  00000-0  00000-0 0 13994
2 89950 038.0184 002.4290 7035733 177.4475 329.2885 01.02383552    03

# Worst residual: 96.05 km
# MJD 59474.000000 (2021 Sep 17  0:00)
A10ACM6 = A10Aw06 = A10AKvJ = A10AXl5
1 89950U 00000ABX 21260.49919926  .00000000  00000-0  00000-0 0 13996
2 89950 038.0115 002.3770 7039724 177.8906 336.8698 01.02402180    01

# Worst residual: 93.98 km
# MJD 59475.000000 (2021 Sep 18  0:00)
A10ACM6 = A10Aw06 = A10AKvJ = A10AXl5
1 89950U 00000ABX 21261.49919926  .00000000  00000-0  00000-0 0 13997
2 89950 038.0379 002.3254 7043445 178.3260 344.4979 01.02425404    05

# Worst residual: 97.25 km
# MJD 59476.000000 (2021 Sep 19  0:00)
A10ACM6 = A10Aw06 = A10AKvJ = A10AXl5
1 89950U 00000ABX 21262.49919926  .00000000  00000-0  00000-0 0 13998
2 89950 038.0276 002.2845 7046894 178.7656 352.1551 01.02459109    01

# Worst residual: 91.38 km
# MJD 59477.000000 (2021 Sep 20  0:00)
A10ACM6 = A10Aw06 = A10AKvJ = A10AXl5
1 89950U 00000ABX 21263.49919926  .00000000  00000-0  00000-0 0 13999
2 89950 038.0305 002.2382 7050013 179.2092 359.8397 01.02478139    04

# Worst residual: 79.52 km
# MJD 59478.000000 (2021 Sep 21  0:00)
A10ACM6 = A10Aw06 = A10AKvJ = A10AXl5
1 89950U 00000ABX 21264.49919926  .00000000  00000-0  00000-0 0 13990
2 89950 038.0270 002.1940 7052389 179.6524 007.5514 01.02483554    01

# Worst residual: 75.87 km
# MJD 59479.000000 (2021 Sep 22  0:00)
A10ACM6 = A10Aw06 = A10AKvJ = A10AXl5
1 89950U 00000ABX 21265.49919926  .00000000  00000-0  00000-0 0 13991
2 89950 038.0313 002.1455 7053340 180.0900 015.3116 01.02500772    09

# Worst residual: 77.50 km
# MJD 59480.000000 (2021 Sep 23  0:00)
A10ACM6 = A10Aw06 = A10AKvJ = A10AXl5
1 89950U 00000ABX 21266.49919926  .00000000  00000-0  00000-0 0 13992
2 89950 038.0282 002.0990 7054323 180.5247 023.0952 01.02504399    01

# Worst residual: 78.38 km
# MJD 59481.000000 (2021 Sep 24  0:00)
A10ACM6 = A10Aw06 = A10AKvJ = A10AXl5
1 89950U 00000ABX 21267.49919926  .00000000  00000-0  00000-0 0 13993
2 89950 038.0224 002.0505 7056094 180.9583 030.8952 01.02497876    00

# Worst residual: 90.82 km
# MJD 59482.000000 (2021 Sep 25  0:00)
A10ACM6 = A10Aw06 = A10AKvJ = A10AXl5
1 89950U 00000ABX 21268.49919926  .00000000  00000-0  00000-0 0 13994
2 89950 038.0175 002.0049 7055558 181.3946 038.7010 01.02495800    07

# Worst residual: 96.05 km
# MJD 59483.000000 (2021 Sep 26  0:00)
A10ACM6 = A10Aw06 = A10AKvJ = A10AXl5
1 89950U 00000ABX 21269.49919926  .00000000  00000-0  00000-0 0 13995
2 89950 038.0117 001.9578 7055422 181.8291 046.5128 01.02483725    06

# Worst residual: 97.83 km
# MJD 59484.000000 (2021 Sep 27  0:00)
A10ACM6 = A10Aw06 = A10AKvJ = A10AXl5
1 89950U 00000ABX 21270.49919926  .00000000  00000-0  00000-0 0 13997
2 89950 038.0025 001.9140 7055627 182.2544 054.3318 01.02469458    07

# Worst residual: 100.16 km
# MJD 59485.000000 (2021 Sep 28  0:00)
A10ACM6 = A10Aw06 = A10AKvJ = A10AXl5
1 89950U 00000ABX 21271.49919926  .00000000  00000-0  00000-0 0 13998
2 89950 037.9952 001.8638 7054778 182.6949 062.1317 01.02448833    04

# Worst residual: 92.25 km
# MJD 59486.000000 (2021 Sep 29  0:00)
A10ACM6 = A10Aw06 = A10AKvJ = A10AXl5
1 89950U 00000ABX 21272.49919926  .00000000  00000-0  00000-0 0 13999
2 89950 037.9877 001.8182 7054565 183.1375 069.9019 01.02420463    00

# Worst residual: 88.55 km
# MJD 59487.000000 (2021 Sep 30  0:00)
A10ACM6 = A10Aw06 = A10AKvJ = A10AXl5
1 89950U 00000ABX 21273.49919926  .00000000  00000-0  00000-0 0 13990
2 89950 037.9766 001.7672 7053544 183.5793 077.6456 01.02399699    01

# Worst residual: 88.00 km
# MJD 59488.000000 (2021 Oct  1  0:00)
A10ACM6 = A10Aw06 = A10AKvJ = A10AXl5
1 89950U 00000ABX 21274.49919926  .00000000  00000-0  00000-0 0 13991
2 89950 037.9587 001.7223 7051178 184.0220 085.3661 01.02373447    03

# Worst residual: 89.15 km
# MJD 59489.000000 (2021 Oct  2  0:00)
A10ACM6 = A10Aw06 = A10AKvJ = A10AXl5
1 89950U 00000ABX 21275.49919926  .00000000  00000-0  00000-0 0 13992
2 89950 037.9429 001.6749 7048486 184.4668 093.0479 01.02343993    04

# Worst residual: 93.39 km
# MJD 59490.000000 (2021 Oct  3  0:00)
A10ACM6 = A10Aw06 = A10AKvJ = A10AXl5
1 89950U 00000ABX 21276.49919926  .00000000  00000-0  00000-0 0 13993
2 89950 037.9248 001.6270 7045359 184.9117 100.6929 01.02314235    04

# Worst residual: 89.38 km
# MJD 59491.000000 (2021 Oct  4  0:00)
A10ACM6 = A10Aw06 = A10AKvJ = A10AXl5
1 89950U 00000ABX 21277.49919926  .00000000  00000-0  00000-0 0 13994
2 89950 037.9050 001.5729 7042386 185.3624 108.2943 01.02293114    00

# Worst residual: 95.91 km
# MJD 59492.000000 (2021 Oct  5  0:00)
A10ACM6 = A10Aw06 = A10AKvJ = A10AXl5
1 89950U 00000ABX 21278.49919926  .00000000  00000-0  00000-0 0 13995
2 89950 037.8843 001.5298 7037917 185.8107 115.8278 01.02255047    03

# Worst residual: 93.47 km
# MJD 59493.000000 (2021 Oct  6  0:00)
A10ACM6 = A10Aw06 = A10AKvJ = A10AXl5
1 89950U 00000ABX 21279.49919926  .00000000  00000-0  00000-0 0 13996
2 89950 037.8603 001.4784 7033413 186.2631 123.3072 01.02227784    03

# Worst residual: 96.44 km
# MJD 59494.000000 (2021 Oct  7  0:00)
A10ACM6 = A10Aw06 = A10AKvJ = A10AXl5
1 89950U 00000ABX 21280.49919926  .00000000  00000-0  00000-0 0 13998
2 89950 037.8382 001.4319 7027081 186.7192 130.7311 01.02189266    02
